start=new Date('2021-09-09T00:00:00.000Z').valueOf();
sats=[{"MEAN_ELEMENT_THEORY":"SGP4","DECAY_DATE":null,"NORAD_CAT_ID":"47821","APOAPSIS":"548.804","COUNTRY_CODE":"US","GP_ID":"184349061","ECCENTRICITY":"0.00022720","OBJECT_ID":"2021-018AL","MEAN_ANOMALY":"267.7343","MEAN_MOTION":"15.06394567","LAUNCH_DATE":"2021-03-11","SEMIMAJOR_AXIS":"6925.365","CLASSIFICATION_TYPE":"U","REV_AT_EPOCH":"2898","MEAN_MOTION_DDOT":"0.0000000000000","TLE_LINE2":"2 47821  53.0564  66.4246 0002272  92.3906 267.7343 15.06394567 28982","SITE":"AFETR","MEAN_MOTION_DOT":"0.00000120","PERIAPSIS":"545.657","OBJECT_TYPE":"PAYLOAD","OBJECT_NAME":"STARLINK-2406","EPOCH":"2021-09-08T21:23:42.286560","TIME_SYSTEM":"UTC","EPHEMERIS_TYPE":"0","BSTAR":"0.00002699600000","TLE_LINE1":"1 47821U 21018AL  21251.89146165  .00000120  00000-0  26996-4 0  9994","RCS_SIZE":"LARGE","ARG_OF_PERICENTER":"92.3906","FILE":"3111252","CENTER_NAME":"EARTH","RA_OF_ASC_NODE":"66.4246","INCLINATION":"53.0564","ELEMENT_SET_NO":"999","PERIOD":"95.592","REF_FRAME":"TEME"},{"RA_OF_ASC_NODE":"76.3661","CENTER_NAME":"EARTH","FILE":"3111252","ARG_OF_PERICENTER":"85.5258","REF_FRAME":"TEME","INCLINATION":"53.0545","PERIOD":"95.592","ELEMENT_SET_NO":"999","EPOCH":"2021-09-08T21:39:40.178304","OBJECT_NAME":"STARLINK-2407","TIME_SYSTEM":"UTC","TLE_LINE1":"1 47822U 21018AM  21251.90254836  .00002702  00000-0  20023-3 0  9994","BSTAR":"0.00020023000000","RCS_SIZE":"LARGE","EPHEMERIS_TYPE":"0","REV_AT_EPOCH":"2885","CLASSIFICATION_TYPE":"U","SEMIMAJOR_AXIS":"6925.358","PERIAPSIS":"546.008","OBJECT_TYPE":"PAYLOAD","TLE_LINE2":"2 47822  53.0545  76.3661 0001754  85.5258 274.5932 15.06396904 28854","MEAN_MOTION_DOT":"0.00002702","SITE":"AFETR","MEAN_MOTION_DDOT":"0.0000000000000","GP_ID":"184348811","ECCENTRICITY":"0.00017540","OBJECT_ID":"2021-018AM","NORAD_CAT_ID":"47822","APOAPSIS":"548.438","DECAY_DATE":null,"MEAN_ELEMENT_THEORY":"SGP4","COUNTRY_CODE":"US","LAUNCH_DATE":"2021-03-11","MEAN_ANOMALY":"274.5932","MEAN_MOTION":"15.06396904"},{"REF_FRAME":"TEME","INCLINATION":"53.0561","ELEMENT_SET_NO":"999","PERIOD":"95.592","RA_OF_ASC_NODE":"66.8961","CENTER_NAME":"EARTH","ARG_OF_PERICENTER":"82.3743","FILE":"3111252","TLE_LINE1":"1 47823U 21018AN  21251.78551185 -.00000647  00000-0 -24502-4 0  9993","BSTAR":"-0.00002450200000","RCS_SIZE":"LARGE","EPHEMERIS_TYPE":"0","OBJECT_NAME":"STARLINK-2408","EPOCH":"2021-09-08T18:51:08.223840","TIME_SYSTEM":"UTC","PERIAPSIS":"545.977","OBJECT_TYPE":"PAYLOAD","MEAN_MOTION_DDOT":"0.0000000000000","TLE_LINE2":"2 47823  53.0561  66.8961 0001798  82.3743 277.7450 15.06397209 28974","MEAN_MOTION_DOT":"-0.00000647","SITE":"AFETR","SEMIMAJOR_AXIS":"6925.357","CLASSIFICATION_TYPE":"U","REV_AT_EPOCH":"2897","LAUNCH_DATE":"2021-03-11","MEAN_ANOMALY":"277.7450","MEAN_MOTION":"15.06397209","ECCENTRICITY":"0.00017980","GP_ID":"184348060","OBJECT_ID":"2021-018AN","MEAN_ELEMENT_THEORY":"SGP4","DECAY_DATE":null,"APOAPSIS":"548.467","NORAD_CAT_ID":"47823","COUNTRY_CODE":"US"},{"COUNTRY_CODE":"US","MEAN_ELEMENT_THEORY":"SGP4","DECAY_DATE":null,"NORAD_CAT_ID":"47824","APOAPSIS":"548.474","OBJECT_ID":"2021-018AP","ECCENTRICITY":"0.00017900","GP_ID":"184348310","MEAN_MOTION":"15.06393136","MEAN_ANOMALY":"279.0891","LAUNCH_DATE":"2021-03-11","CLASSIFICATION_TYPE":"U","SEMIMAJOR_AXIS":"6925.370","REV_AT_EPOCH":"2898","MEAN_MOTION_DDOT":"0.0000000000000","MEAN_MOTION_DOT":"0.00000022","TLE_LINE2":"2 47824  53.0544  66.3696 0001790  81.0301 279.0891 15.06393136 28984","SITE":"AFETR","OBJECT_TYPE":"PAYLOAD","PERIAPSIS":"545.995","TIME_SYSTEM":"UTC","OBJECT_NAME":"STARLINK-2409","EPOCH":"2021-09-08T21:46:17.423040","EPHEMERIS_TYPE":"0","TLE_LINE1":"1 47824U 21018AP  21251.90714610  .00000022  00000-0  20384-4 0  9991","RCS_SIZE":"LARGE","BSTAR":"0.00002038400000","ARG_OF_PERICENTER":"81.0301","FILE":"3111252","CENTER_NAME":"EARTH","RA_OF_ASC_NODE":"66.3696","ELEMENT_SET_NO":"999","PERIOD":"95.593","INCLINATION":"53.0544","REF_FRAME":"TEME"},{"TIME_SYSTEM":"UTC","EPOCH":"2021-09-08T20:37:17.905728","OBJECT_NAME":"STARLINK-2410","TLE_LINE1":"1 47825U 21018AQ  21251.85923502 -.00000786  00000-0 -33837-4 0  9994","RCS_SIZE":"LARGE","BSTAR":"-0.00003383700000","EPHEMERIS_TYPE":"0","CENTER_NAME":"EARTH","RA_OF_ASC_NODE":"66.5566","FILE":"3111252","ARG_OF_PERICENTER":"90.1541","REF_FRAME":"TEME","PERIOD":"95.593","ELEMENT_SET_NO":"999","INCLINATION":"53.0545","OBJECT_ID":"2021-018AQ","GP_ID":"184348561","ECCENTRICITY":"0.00022620","COUNTRY_CODE":"US","APOAPSIS":"548.818","NORAD_CAT_ID":"47825","MEAN_ELEMENT_THEORY":"SGP4","DECAY_DATE":null,"LAUNCH_DATE":"2021-03-11","MEAN_MOTION":"15.06387585","MEAN_ANOMALY":"269.9708","REV_AT_EPOCH":"2898","CLASSIFICATION_TYPE":"U","SEMIMAJOR_AXIS":"6925.387","OBJECT_TYPE":"PAYLOAD","PERIAPSIS":"545.685","TLE_LINE2":"2 47825  53.0545  66.5566 0002262  90.1541 269.9708 15.06387585 28982","MEAN_MOTION_DOT":"-0.00000786","SITE":"AFETR","MEAN_MOTION_DDOT":"0.0000000000000"},{"INCLINATION":"53.0559","ELEMENT_SET_NO":"999","PERIOD":"95.592","REF_FRAME":"TEME","ARG_OF_PERICENTER":"78.9417","FILE":"3111241","RA_OF_ASC_NODE":"66.5841","CENTER_NAME":"EARTH","EPHEMERIS_TYPE":"0","TLE_LINE1":"1 47826U 21018AR  21251.85554447 -.00000452  00000-0 -11465-4 0  9996","RCS_SIZE":"LARGE","BSTAR":"-0.00001146500000","OBJECT_NAME":"STARLINK-2411","EPOCH":"2021-09-08T20:31:59.042208","TIME_SYSTEM":"UTC","MEAN_MOTION_DDOT":"0.0000000000000","MEAN_MOTION_DOT":"-0.00000452","TLE_LINE2":"2 47826  53.0559  66.5841 0001963  78.9417 281.1792 15.06395622 28640","SITE":"AFETR","PERIAPSIS":"545.868","OBJECT_TYPE":"PAYLOAD","SEMIMAJOR_AXIS":"6925.362","CLASSIFICATION_TYPE":"U","REV_AT_EPOCH":"2864","MEAN_ANOMALY":"281.1792","MEAN_MOTION":"15.06395622","LAUNCH_DATE":"2021-03-11","DECAY_DATE":null,"MEAN_ELEMENT_THEORY":"SGP4","NORAD_CAT_ID":"47826","APOAPSIS":"548.586","COUNTRY_CODE":"US","GP_ID":"184326817","ECCENTRICITY":"0.00019630","OBJECT_ID":"2021-018AR"},{"DECAY_DATE":null,"MEAN_ELEMENT_THEORY":"SGP4","APOAPSIS":"548.276","NORAD_CAT_ID":"47827","COUNTRY_CODE":"US","GP_ID":"184347560","ECCENTRICITY":"0.00015400","OBJECT_ID":"2021-018AS","MEAN_ANOMALY":"262.9670","MEAN_MOTION":"15.06401403","LAUNCH_DATE":"2021-03-11","SEMIMAJOR_AXIS":"6925.344","CLASSIFICATION_TYPE":"U","REV_AT_EPOCH":"2918","MEAN_MOTION_DDOT":"0.0000000000000","TLE_LINE2":"2 47827  53.0575  56.4622 0001540  97.1494 262.9670 15.06401403 29180","SITE":"AFETR","MEAN_MOTION_DOT":"0.00000100","PERIAPSIS":"546.143","OBJECT_TYPE":"PAYLOAD","OBJECT_NAME":"STARLINK-2413","EPOCH":"2021-09-08T21:09:06.062688","TIME_SYSTEM":"UTC","EPHEMERIS_TYPE":"0","BSTAR":"0.00002562200000","TLE_LINE1":"1 47827U 21018AS  21251.88132017  .00000100  00000-0  25622-4 0  9993","RCS_SIZE":"LARGE","ARG_OF_PERICENTER":"97.1494","FILE":"3111252","RA_OF_ASC_NODE":"56.4622","CENTER_NAME":"EARTH","INCLINATION":"53.0575","ELEMENT_SET_NO":"999","PERIOD":"95.592","REF_FRAME":"TEME"},{"PERIAPSIS":"545.695","OBJECT_TYPE":"PAYLOAD","MEAN_MOTION_DDOT":"0.0000000000000","TLE_LINE2":"2 47828  53.0557  76.3538 0002172  82.4915 277.6321 15.06404757 28859","SITE":"AFETR","MEAN_MOTION_DOT":"-0.00000811","CLASSIFICATION_TYPE":"U","SEMIMAJOR_AXIS":"6925.334","REV_AT_EPOCH":"2885","LAUNCH_DATE":"2021-03-11","MEAN_ANOMALY":"277.6321","MEAN_MOTION":"15.06404757","GP_ID":"184347810","ECCENTRICITY":"0.00021720","OBJECT_ID":"2021-018AT","MEAN_ELEMENT_THEORY":"SGP4","DECAY_DATE":null,"APOAPSIS":"548.703","NORAD_CAT_ID":"47828","COUNTRY_CODE":"US","REF_FRAME":"TEME","INCLINATION":"53.0557","ELEMENT_SET_NO":"999","PERIOD":"95.592","RA_OF_ASC_NODE":"76.3538","CENTER_NAME":"EARTH","ARG_OF_PERICENTER":"82.4915","FILE":"3111252","RCS_SIZE":"LARGE","TLE_LINE1":"1 47828U 21018AT  21251.90623103 -.00000811  00000-0 -35526-4 0  9993","BSTAR":"-0.00003552600000","EPHEMERIS_TYPE":"0","OBJECT_NAME":"STARLINK-2415","EPOCH":"2021-09-08T21:44:58.360992","TIME_SYSTEM":"UTC"},{"OBJECT_TYPE":"PAYLOAD","PERIAPSIS":"545.974","MEAN_MOTION_DOT":"-0.00000944","TLE_LINE2":"2 47829  53.0553  76.2754 0001810  91.4295 268.6902 15.06395457 28844","SITE":"AFETR","MEAN_MOTION_DDOT":"0.0000000000000","REV_AT_EPOCH":"2884","CLASSIFICATION_TYPE":"U","SEMIMAJOR_AXIS":"6925.362","LAUNCH_DATE":"2021-03-11","MEAN_MOTION":"15.06395457","MEAN_ANOMALY":"268.6902","OBJECT_ID":"2021-018AU","GP_ID":"184349062","ECCENTRICITY":"0.00018100","COUNTRY_CODE":"US","NORAD_CAT_ID":"47829","APOAPSIS":"548.481","MEAN_ELEMENT_THEORY":"SGP4","DECAY_DATE":null,"REF_FRAME":"TEME","PERIOD":"95.592","ELEMENT_SET_NO":"999","INCLINATION":"53.0553","RA_OF_ASC_NODE":"76.2754","CENTER_NAME":"EARTH","FILE":"3111252","ARG_OF_PERICENTER":"91.4295","BSTAR":"-0.00004449900000","TLE_LINE1":"1 47829U 21018AU  21251.92465786 -.00000944  00000-0 -44499-4 0  9993","RCS_SIZE":"LARGE","EPHEMERIS_TYPE":"0","TIME_SYSTEM":"UTC","EPOCH":"2021-09-08T22:11:30.439104","OBJECT_NAME":"STARLINK-2416"},{"TIME_SYSTEM":"UTC","OBJECT_NAME":"STARLINK-2419","EPOCH":"2021-09-08T20:30:39.576672","EPHEMERIS_TYPE":"0","BSTAR":"-0.00007659400000","TLE_LINE1":"1 47830U 21018AV  21251.85462473 -.00001422  00000-0 -76594-4 0  9990","RCS_SIZE":"LARGE","ARG_OF_PERICENTER":"84.8992","FILE":"3111252","CENTER_NAME":"EARTH","RA_OF_ASC_NODE":"76.5839","ELEMENT_SET_NO":"999","PERIOD":"95.593","INCLINATION":"53.0568","REF_FRAME":"TEME","COUNTRY_CODE":"US","MEAN_ELEMENT_THEORY":"SGP4","DECAY_DATE":null,"NORAD_CAT_ID":"47830","APOAPSIS":"548.641","OBJECT_ID":"2021-018AV","ECCENTRICITY":"0.00020200","GP_ID":"184348812","MEAN_MOTION":"15.06390722","MEAN_ANOMALY":"275.2228","LAUNCH_DATE":"2021-03-11","SEMIMAJOR_AXIS":"6925.377","CLASSIFICATION_TYPE":"U","REV_AT_EPOCH":"2883","MEAN_MOTION_DDOT":"0.0000000000000","MEAN_MOTION_DOT":"-0.00001422","TLE_LINE2":"2 47830  53.0568  76.5839 0002020  84.8992 275.2228 15.06390722 28837","SITE":"AFETR","OBJECT_TYPE":"PAYLOAD","PERIAPSIS":"545.843"}];
